UNKNOWN                 
1 87334U          26027.62276347  .00026294  00000+0  14931-1 0  9990
2 87334  89.9996 271.6840 0059581  87.5584 273.2420 14.08864382393100
UNKNOWN                 
1 87335U          26027.62351741  .00024408  00000+0  13624-1 0  9996
2 87335  89.9863 267.9156 0080440  68.5790 292.3951 14.09075043393434
UNKNOWN                 
1 87405U          26025.27712343  .00003087  00000+0  21906-2 0  9995
2 87405  82.7487  25.7625 0057206 202.7699 157.0931 13.96564361617233
UNKNOWN                 
1 87426U          26027.50882149  .00007139  00000+0  27156-2 0  9993
2 87426  65.7842 210.4092 0068007 272.3743 118.9648 14.30196405629139
UNKNOWN                 
1 87448U          26027.55586928  .00001903  00000+0  15409-2 0  9999
2 87448 100.4523 244.7362 0062787  84.6421 276.1893 13.90761943615608
UNKNOWN                 
1 87456U          26026.21588867  .00021739  00000+0  31219-2 0  9990
2 87456  65.7802 332.8742 0510710 342.0853  16.2781 14.14458800617787
UNKNOWN                 
1 87517U          26021.77810484  .00008188  00000+0  22318-2 0  9990
2 87517  65.8185 135.2421 0675698 287.3753 146.8912 13.61546179598362
UNKNOWN                 
1 87541U          26010.42988520  .00000073  00000+0  22386-3 0  9995
2 87541  99.6994 227.9070 0059564 192.8657 291.0153 13.35601126585868
UNKNOWN                 
1 87553U          26026.00797370  .00003936  00000+0  12130-2 0  9996
2 87553  65.6673 248.7144 0696030 207.8629 148.3471 13.53722635597243
UNKNOWN                 
1 87557U          26025.82783114  .00005595  00000+0  12200-1 0  9990
2 87557 101.7488 252.0644 0079622 287.9240  71.3206 13.28216857570884
UNKNOWN                 
1 87561U          26023.62950152  .00000012  00000+0  43772-3 0  9998
2 87561 102.0034  85.0011 0175874 216.3867 298.6831 12.32162462547595
